line1,line2,validFromUtcTime
1 00000U 00000E   26001.00000000  .00000000  00000-0  27772-4 0    01,2 00000  88.8731 120.3345 0010052 270.1863  74.7428 13.55296193    06,2026-01-01T00:00:00Z
1 00000U 00000E   26002.00000000  .00000000  00000-0  27772-4 0    02,2 00000  88.8737 120.2202 0010079 266.3435 274.7402 13.55293203    07,2026-01-02T00:00:00Z
